[{"OBJECT_NAME":"ONEWEB-0450","OBJECT_ID":"2021-132AM","EPOCH":"2026-03-09T17:09:03.567168","MEAN_MOTION":13.18686652,"ECCENTRICITY":0.00019502,"INCLINATION":87.9243,"RA_OF_ASC_NODE":355.2212,"ARG_OF_PERICENTER":86.486,"MEAN_ANOMALY":273.6495,"EPHEMERIS_TYPE":0,"CLASSIFICATION_TYPE":"U","NORAD_CAT_ID":50504,"ELEMENT_SET_NO":999,"REV_AT_EPOCH":20849,"BSTAR":0.00020393995,"MEAN_MOTION_DOT":9.3e-7,"MEAN_MOTION_DDOT":0},{"OBJECT_NAME":"SL-14 DEB","OBJECT_ID":"1991-056L","EPOCH":"2026-03-09T20:31:07.530528","MEAN_MOTION":13.17697969,"ECCENTRICITY":0.00265082,"INCLINATION":82.5391,"RA_OF_ASC_NODE":205.444,"ARG_OF_PERICENTER":37.6548,"MEAN_ANOMALY":322.6423,"EPHEMERIS_TYPE":0,"CLASSIFICATION_TYPE":"U","NORAD_CAT_ID":45274,"ELEMENT_SET_NO":999,"REV_AT_EPOCH":29164,"BSTAR":0.0006773627,"MEAN_MOTION_DOT":2.76e-6,"MEAN_MOTION_DDOT":0}]
